OBJECT_NAME,OBJECT_ID,EPOCH,MEAN_MOTION,ECCENTRICITY,INCLINATION,RA_OF_ASC_NODE,ARG_OF_PERICENTER,MEAN_ANOMALY,EPHEMERIS_TYPE,CLASSIFICATION_TYPE,NORAD_CAT_ID,ELEMENT_SET_NO,REV_AT_EPOCH,BSTAR,MEAN_MOTION_DOT,MEAN_MOTION_DDOT
KUZGTU 1 (RS47S),2023-091AV,2026-07-05T09:52:07.230720,15.30312456,.00110591,97.5048,251.0808,39.9978,320.2075,0,U,57217,999,16716,.60067039E-3,.17588E-3,0
SONATE-2,2024-043Q,2026-07-04T23:27:56.157120,15.60161084,.00070502,97.5552,337.4841,138.7843,221.3947,0,U,59112,999,13066,.78271373E-3,.6396E-3,0
MESAT1,2024-125G,2026-07-05T01:59:27.470976,15.65387255,.0010849,97.2261,43.9963,144.0451,216.1541,0,U,60209,999,11236,.10198E-2,.102783E-2,0
OOV-CUBE (TUBSAT-30),2024-128F,2026-07-05T10:04:35.016672,15.02846916,.00423301,61.9939,161.9927,137.7916,222.6447,0,U,60240,999,10885,.2424366E-3,.3114E-4,0
COLIBRI-S (RS67S),2024-199M,2026-07-05T08:30:25.381152,15.48533702,.00076641,97.2964,60.3804,198.0855,162.0124,0,U,61746,999,14022,.57257615E-3,.30497E-3,0
HORS 3 (RS81S),2024-199U,2026-07-05T08:35:57.990048,15.56343716,.00058298,97.2943,62.5741,188.2771,171.8389,0,U,61753,999,14038,.74458119E-3,.52637E-3,0
HORS 4 (RS82S),2024-199V,2026-07-05T09:21:08.413344,15.61576244,.00058323,97.2888,63.9310,177.7087,182.4199,0,U,61754,999,14048,.86619255E-3,.74803E-3,0
SIT-2086,2024-199AF,2026-07-05T08:36:28.013184,15.54454251,.00071107,97.2901,62.9878,175.3528,184.7793,0,U,61764,999,13725,.82137623E-3,.54219E-3,0
HYPERVIEW 1G (RS66S),2024-199AP,2026-07-05T09:12:32.608800,15.81876721,.00076389,97.2814,67.0916,167.3414,192.8048,0,U,61772,999,13754,.11654939E-2,.241182E-2,0
ALTAIR (RS65S),2024-199AW,2026-07-05T14:22:59.698848,15.37389002,.00110997,97.3003,55.8303,234.0180,126.0037,0,U,61779,999,13994,.29554443E-3,.10774E-3,0
ASRTU-1 (AO-123),2024-199AY,2026-07-05T09:48:03.772800,15.35952347,.00120999,97.2974,54.9154,238.8093,121.1965,0,U,61781,999,13672,.31803927E-3,.1108E-3,0
SAMSAT-IONOSPHERE (RS75S),2024-199BB,2026-07-05T08:37:33.246912,15.59371355,.00079693,97.2908,62.6920,193.9247,166.1791,0,U,61784,999,14039,.87452593E-3,.69435E-3,0
RTU MIREA 1 (RS51S),2024-199BC,2026-07-05T14:20:03.604416,15.63330088,.0008124,97.2897,63.8679,186.7708,173.3443,0,U,61785,999,13734,.8614302E-3,.79731E-3,0
TEVEL2-4,2025-052D,2026-07-05T05:46:13.762848,15.35303959,.00043516,97.3872,82.6666,70.8650,289.3064,0,U,63213,999,7288,.91379139E-3,.31346E-3,0
TEVEL2-5,2025-052E,2026-07-05T09:26:28.304160,15.35125326,.00043633,97.3873,82.7629,72.3429,287.8291,0,U,63214,999,7290,.82946421E-3,.28273E-3,0
TEVEL2-6,2025-052F,2026-07-05T06:37:05.444544,15.35087674,.00041797,97.3876,82.6298,75.3449,284.8258,0,U,63215,999,7288,.91851635E-3,.31292E-3,0
TEVEL2-1,2025-052H,2026-07-05T05:54:14.034528,15.34526589,.00047601,97.3841,82.2022,79.7800,280.3980,0,U,63217,999,7286,.91479638E-3,.30614E-3,0
TEVEL2-3,2025-052J,2026-07-05T05:45:32.173344,15.34586302,.0004595,97.3853,82.2204,81.7133,278.4631,0,U,63218,999,7286,.89038929E-3,.29848E-3,0
TEVEL2-2,2025-052K,2026-07-05T04:20:37.034016,15.34532608,.00048204,97.3851,82.1402,80.0864,280.0923,0,U,63219,999,7285,.96426954E-3,.32287E-3,0
OTP-2,2025-052AB,2026-07-04T22:53:34.527840,15.24240704,.0008317,97.3847,78.1191,98.5462,261.6718,0,U,63235,999,7257,.50685E-3,.12315E-3,0
TEVEL2-9,2025-052AD,2026-07-05T10:38:03.991200,15.32507025,.00082561,97.3914,81.7378,83.6383,276.5799,0,U,63237,999,7282,.71103567E-3,.22303E-3,0
TEVEL2-7,2025-052AE,2026-07-05T05:25:57.878112,15.32192740,.0008312,97.3915,81.4293,84.3933,275.8257,0,U,63238,999,7278,.85257561E-3,.26511E-3,0
TEVEL2-8,2025-052AF,2026-07-05T05:38:05.938944,15.32178382,.00083199,97.3912,81.4140,84.8446,275.3745,0,U,63239,999,7278,.86146836E-3,.26777E-3,0
INNOSAT 16 (RS92S7),2025-155C,2026-07-05T08:49:46.277472,15.25662935,.00122844,97.4578,153.4405,117.7811,242.4674,0,U,64878,999,8344,.32839929E-3,.8305E-4,0
GEOSCAN 6 (RS92S6),2025-155D,2026-07-05T08:37:39.029664,15.30516887,.00099226,97.4569,154.9863,109.5480,250.6833,0,U,64879,999,8354,.50843177E-3,.1496E-3,0
GEOSCAN 1 (RS92S1),2025-155E,2026-07-05T08:30:41.551776,15.31151194,.00098569,97.4565,155.1456,109.6058,250.6248,0,U,64880,999,8355,.54179603E-3,.16266E-3,0
239ALFEROV (RS61S),2025-155F,2026-07-05T08:42:38.177568,15.33469878,.00095521,97.4566,155.7778,109.1105,251.1172,0,U,64881,999,8359,.61425166E-3,.19848E-3,0
GEOSCAN 2 (RS92S2),2025-155Q,2026-07-05T08:17:03.642720,15.31409517,.00092504,97.4564,155.2957,99.3858,260.8429,0,U,64890,999,8356,.54356708E-3,.16448E-3,0
GEOSCAN 5 (RS92S5),2025-155R,2026-07-05T08:21:27.178272,15.33780273,.00085196,97.4557,155.9073,112.9153,247.2990,0,U,64891,999,8360,.60897012E-3,.19864E-3,0
GEOSCAN 4 (RS92S4),2025-155S,2026-07-05T09:29:55.948416,15.33946621,.00085161,97.4562,156.0091,112.7965,247.4178,0,U,64892,999,8361,.61945603E-3,.20315E-3,0
