KUZGTU 1 (RS47S)        
1 57217U 23091AV  26186.41119480  .00017588  00000+0  60067-3 0  9998
2 57217  97.5048 251.0808 0011059  39.9978 320.2075 15.30312456167162
SONATE-2                
1 59112U 24043Q   26185.97773330  .00063960  00000+0  78271-3 0  9993
2 59112  97.5552 337.4841 0007050 138.7843 221.3947 15.60161084130665
MESAT1                  
1 60209U 24125G   26186.08295685  .00102783  00000+0  10198-2 0  9998
2 60209  97.2261  43.9963 0010849 144.0451 216.1541 15.65387255112361
OOV-CUBE (TUBSAT-30)    
1 60240U 24128F   26186.41984973  .00003114  00000+0  24244-3 0  9994
2 60240  61.9939 161.9927 0042330 137.7916 222.6447 15.02846916108853
COLIBRI-S (RS67S)       
1 61746U 24199M   26186.35446043  .00030497  00000+0  57258-3 0  9993
2 61746  97.2964  60.3804 0007664 198.0855 162.0124 15.48533702140226
HORS 3 (RS81S)          
1 61753U 24199U   26186.35831007  .00052637  00000+0  74458-3 0  9990
2 61753  97.2943  62.5741 0005829 188.2771 171.8389 15.56343716140385
HORS 4 (RS82S)          
1 61754U 24199V   26186.38968071  .00074803  00000+0  86619-3 0  9997
2 61754  97.2888  63.9310 0005832 177.7087 182.4199 15.61576244140486
SIT-2086                
1 61764U 24199AF  26186.35865756  .00054219  00000+0  82138-3 0  9992
2 61764  97.2901  62.9878 0007110 175.3528 184.7793 15.54454251137257
HYPERVIEW 1G (RS66S)    
1 61772U 24199AP  26186.38371075  .00241182  00000+0  11655-2 0  9992
2 61772  97.2814  67.0916 0007638 167.3414 192.8048 15.81876721137543
ALTAIR (RS65S)          
1 61779U 24199AW  26186.59930207  .00010774  00000+0  29554-3 0  9999
2 61779  97.3003  55.8303 0011099 234.0180 126.0037 15.37389002139949
ASRTU-1 (AO-123)        
1 61781U 24199AY  26186.40837700  .00011080  00000+0  31804-3 0  9998
2 61781  97.2974  54.9154 0012099 238.8093 121.1965 15.35952347136723
SAMSAT-IONOSPHERE (RS7*)
1 61784U 24199BB  26186.35941258  .00069435  00000+0  87453-3 0  9997
2 61784  97.2908  62.6920 0007969 193.9247 166.1791 15.59371355140396
RTU MIREA 1 (RS51S)     
1 61785U 24199BC  26186.59726394  .00079731  00000+0  86143-3 0  9991
2 61785  97.2897  63.8679 0008124 186.7708 173.3443 15.63330088137342
TEVEL2-4                
1 63213U 25052D   26186.24043707  .00031346  00000+0  91379-3 0  9997
2 63213  97.3872  82.6666 0004351  70.8650 289.3064 15.35303959 72886
TEVEL2-5                
1 63214U 25052E   26186.39338315  .00028273  00000+0  82946-3 0  9991
2 63214  97.3873  82.7629 0004363  72.3429 287.8291 15.35125326 72900
TEVEL2-6                
1 63215U 25052F   26186.27575746  .00031292  00000+0  91852-3 0  9991
2 63215  97.3876  82.6298 0004179  75.3449 284.8258 15.35087674 72885
TEVEL2-1                
1 63217U 25052H   26186.24599577  .00030614  00000+0  91480-3 0  9992
2 63217  97.3841  82.2022 0004760  79.7800 280.3980 15.34526589 72868
TEVEL2-3                
1 63218U 25052J   26186.23995571  .00029848  00000+0  89039-3 0  9990
2 63218  97.3853  82.2204 0004595  81.7133 278.4631 15.34586302 72862
TEVEL2-2                
1 63219U 25052K   26186.18098419  .00032287  00000+0  96427-3 0  9990
2 63219  97.3851  82.1402 0004820  80.0864 280.0923 15.34532608 72856
OTP-2                   
1 63235U 25052AB  26185.95387186  .00012315  00000+0  50685-3 0  9990
2 63235  97.3847  78.1191 0008316  98.5462 261.6718 15.24240704 72579
TEVEL2-9                
1 63237U 25052AD  26186.44310175  .00022303  00000+0  71104-3 0  9998
2 63237  97.3914  81.7378 0008256  83.6383 276.5799 15.32507025 72826
TEVEL2-7                
1 63238U 25052AE  26186.22636433  .00026511  00000+0  85258-3 0  9993
2 63238  97.3915  81.4293 0008312  84.3933 275.8257 15.32192740 72783
TEVEL2-8                
1 63239U 25052AF  26186.23479096  .00026777  00000+0  86147-3 0  9997
2 63239  97.3912  81.4140 0008319  84.8446 275.3745 15.32178382 72786
INNOSAT 16 (RS92S7)     
1 64878U 25155C   26186.36789673  .00008305  00000+0  32840-3 0  9998
2 64878  97.4578 153.4405 0012284 117.7811 242.4674 15.25662935 83442
GEOSCAN 6 (RS92S6)      
1 64879U 25155D   26186.35947951  .00014960  00000+0  50843-3 0  9990
2 64879  97.4569 154.9863 0009922 109.5480 250.6833 15.30516887 83542
GEOSCAN 1 (RS92S1)      
1 64880U 25155E   26186.35464759  .00016266  00000+0  54180-3 0  9991
2 64880  97.4565 155.1456 0009856 109.6058 250.6248 15.31151194 83557
239ALFEROV (RS61S)      
1 64881U 25155F   26186.36294187  .00019848  00000+0  61425-3 0  9998
2 64881  97.4566 155.7778 0009552 109.1105 251.1172 15.33469878 83592
GEOSCAN 2 (RS92S2)      
1 64890U 25155Q   26186.34518105  .00016448  00000+0  54357-3 0  9994
2 64890  97.4564 155.2957 0009250  99.3858 260.8429 15.31409517 83565
GEOSCAN 5 (RS92S5)      
1 64891U 25155R   26186.34823123  .00019864  00000+0  60897-3 0  9995
2 64891  97.4557 155.9073 0008519 112.9153 247.2990 15.33780273 83601
GEOSCAN 4 (RS92S4)      
1 64892U 25155S   26186.39578644  .00020315  00000+0  61946-3 0  9995
2 64892  97.4562 156.0091 0008516 112.7965 247.4178 15.33946621 83618
